{"spkid": "54353611", "covariance": {"elements": [{"label": "e", "units": null, "title": "eccentricity", "value": ".1341676780147706", "sigma": 2.28851745502906e-06, "name": "e"}, {"label": "q", "name": "q", "sigma": 2.30257204468559e-06, "units": "au", "title": "perihelion distance", "value": ".8645027108218802"}, {"label": "tp", "value": "2460136.049696819418", "title": "time of perihelion passage", "units": "TDB", "sigma": 0.000155493354874773, "name": "tp"}, {"label": "node", "name": "om", "sigma": 1.15905321519181e-05, "units": "deg", "title": "longitude of the ascending node", "value": "201.811629005532"}, {"label": "peri", "name": "w", "sigma": 9.70339363478422e-05, "units": "deg", "title": "argument of perihelion", "value": "103.1321649302862"}, {"title": "inclination", "value": "2.170556733993446", "units": "deg", "name": "i", "sigma": 3.55959681693242e-05, "label": "i"}], "data": [["5.237312141972672E-12", "-5.269474881198952E-12", "-3.555531574736023E-10", "2.406550156357787E-11", "2.213764235017068E-10", "8.11306024548708E-11"], ["-5.269474881198952E-12", "5.301838020967564E-12", "3.577291862779698E-10", "-2.421096362263327E-11", "-2.227449913915952E-10", "-8.163060139418227E-11"], ["-3.555531574736023E-10", "3.577291862779698E-10", "2.417818341021222E-8", "-1.635409179796629E-9", "-1.499064841104961E-8", "-5.500958519018211E-9"], ["2.406550156357787E-11", "-2.421096362263327E-11", "-1.635409179796629E-9", "1.343404355646468E-10", "9.92988804202856E-10", "3.766779616517729E-10"], ["2.213764235017068E-10", "-2.227449913915952E-10", "-1.499064841104961E-8", "9.92988804202856E-10", "9.415584803157087E-9", "3.431386480574518E-9"], ["8.11306024548708E-11", "-8.163060139418227E-11", "-5.500958519018211E-9", "3.766779616517729E-10", "3.431386480574518E-9", "1.267072949911543E-9"]], "labels": ["e", "q", "tp", "node", "peri", "i"], "epoch": "2460155.5"}, "elements": [{"value": ".1354746673003309", "title": "eccentricity", "units": null, "sigma": "2.2523E-6", "name": "e", "label": "e"}, {"label": "a", "name": "a", "sigma": "2.1771E-7", "value": ".9884032432405603", "title": "semi-major axis", "units": "au"}, {"label": "q", "units": "au", "value": ".8544996427039774", "title": "perihelion distance", "sigma": "2.0382E-6", "name": "q"}, {"sigma": "3.6917E-5", "name": "i", "title": "inclination; angle with respect to x-y ecliptic plane", "value": "2.117327819685944", "units": "deg", "label": "i"}, {"label": "node", "units": "deg", "value": "201.4976253689238", "title": "longitude of the ascending node", "name": "om", "sigma": "2.3228E-5"}, {"label": "peri", "units": "deg", "title": "argument of perihelion", "value": "107.3034165505879", "sigma": "7.2618E-5", "name": "w"}, {"sigma": "5.1063E-5", "name": "ma", "title": "mean anomaly", "value": "339.1397367094198", "units": "deg", "label": "M"}, {"label": "tp", "units": "TDB", "title": "time of perihelion passage", "value": "2461221.297778778794", "name": "tp", "sigma": "4.427E-5"}, {"value": "358.9216615375517", "title": "sidereal orbital period", "units": "d", "sigma": ".00011858", "name": "per", "label": "period"}, {"title": "mean motion", "value": "1.003004383903242", "units": "deg/d", "sigma": "3.3138E-7", "name": "n", "label": "n"}, {"label": "Q", "sigma": "2.472E-7", "name": "ad", "title": "aphelion distance", "value": "1.122306843777143", "units": "au"}], "epoch": "2461200.5"}